[{"OBJECT_NAME":"GLOBALSTAR M095","OBJECT_ID":"2013-005F","EPOCH":"2026-03-09T18:33:27.234432","MEAN_MOTION":12.62276132,"ECCENTRICITY":0.00013142,"INCLINATION":52.0061,"RA_OF_ASC_NODE":223.8176,"ARG_OF_PERICENTER":95.9758,"MEAN_ANOMALY":264.1259,"EPHEMERIS_TYPE":0,"CLASSIFICATION_TYPE":"U","NORAD_CAT_ID":39077,"ELEMENT_SET_NO":999,"REV_AT_EPOCH":60331,"BSTAR":3.5730155e-5,"MEAN_MOTION_DOT":-9.7e-7,"MEAN_MOTION_DDOT":0},{"OBJECT_NAME":"COSMOS 2248","OBJECT_ID":"1993-030D","EPOCH":"2026-03-09T21:14:27.791232","MEAN_MOTION":12.63519929,"ECCENTRICITY":0.00094492,"INCLINATION":82.583,"RA_OF_ASC_NODE":14.8155,"ARG_OF_PERICENTER":151.3772,"MEAN_ANOMALY":208.784,"EPHEMERIS_TYPE":0,"CLASSIFICATION_TYPE":"U","NORAD_CAT_ID":22649,"ELEMENT_SET_NO":999,"REV_AT_EPOCH":51387,"BSTAR":0.00014110056,"MEAN_MOTION_DOT":3.6e-7,"MEAN_MOTION_DDOT":0}]
